NEXTSAT-1               
1 43811U 18099BF  26068.68342010  .00004546  00000+0  29857-3 0  9992
2 43811  97.4203 114.8574 0011320 323.9610  36.0854 15.08057555396886
STARLINK-3194           
1 49758U 21115AL  26068.42948847 -.00002991  00000+0 -16993-3 0  9994
2 49758  53.2166 140.2941 0001634  81.7139 278.4039 15.08835621235633
